[{"OBJECT_NAME":"YAOGAN-30 07A","OBJECT_ID":"2020-021A","EPOCH":"2026-03-09T13:20:42.408096","MEAN_MOTION":15.02093562,"ECCENTRICITY":0.0004392,"INCLINATION":34.9941,"RA_OF_ASC_NODE":97.9026,"ARG_OF_PERICENTER":231.7665,"MEAN_ANOMALY":128.2648,"EPHEMERIS_TYPE":0,"CLASSIFICATION_TYPE":"U","NORAD_CAT_ID":45460,"ELEMENT_SET_NO":999,"REV_AT_EPOCH":32556,"BSTAR":0.00035264,"MEAN_MOTION_DOT":4.701e-5,"MEAN_MOTION_DDOT":0},{"OBJECT_NAME":"STARLINK-34931","OBJECT_ID":"2025-191V","EPOCH":"2026-03-09T14:29:29.520960","MEAN_MOTION":15.05652052,"ECCENTRICITY":0.00018,"INCLINATION":97.6023,"RA_OF_ASC_NODE":301.3987,"ARG_OF_PERICENTER":83.481,"MEAN_ANOMALY":276.6621,"EPHEMERIS_TYPE":0,"CLASSIFICATION_TYPE":"U","NORAD_CAT_ID":65398,"ELEMENT_SET_NO":999,"REV_AT_EPOCH":3025,"BSTAR":0.00032075,"MEAN_MOTION_DOT":4.571e-5,"MEAN_MOTION_DDOT":0}]
