YAOGAN-30 07A           
1 45460U 20021A   26068.55604639  .00004701  00000+0  35264-3 0  9998
2 45460  34.9941  97.9026 0004392 231.7665 128.2648 15.02093562325567
STARLINK-34931          
1 65398U 25191V   26068.60381390  .00004571  00000+0  32075-3 0  9997
2 65398  97.6023 301.3987 0001800  83.4810 276.6621 15.05652052 30255
